{
  "type": "FeatureCollection",
  "features": [
    {
      "type": "Feature",
      "properties": {
        "norad_id": 33844,
        "name": "COSMOS 2251 DEB",
        "group": "cosmos-2251-debris",
        "lat": -2.8647813969927696,
        "lon": -134.14962003891335,
        "alt_km": 797.5648311847808,
        "timestamp": "2025-12-16T23:36:36.590853+00:00",
        "meta_object_name": "COSMOS 2251 DEB",
        "meta_object_id": "1993-036CM",
        "meta_epoch": "2025-12-16T06:18:52.780032",
        "meta_mean_motion": 14.33723474,
        "meta_eccentricity": 0.00470468,
        "meta_inclination": 74.067,
        "meta_ra_of_asc_node": 46.3464,
        "meta_arg_of_pericenter": 67.1357,
        "meta_mean_anomaly": 357.1972,
        "meta_ephemeris_type": 0,
        "meta_classification_type": "U",
        "meta_norad_cat_id": 33844,
        "meta_element_set_no": 999,
        "meta_rev_at_epoch": 87776,
        "meta_bstar": 0.00033452849,
        "meta_mean_motion_dot": 9.15e-06,
        "meta_mean_motion_ddot": 0,
        "tle_line1": "1 33844U 93036CM  25350.26311088  .00000915  00000+0  33453-3 0  9992",
        "tle_line2": "2 33844  74.0670  46.3464 0047046  67.1357 357.1972 14.33723474877762"
      },
      "geometry": {
        "type": "Point",
        "coordinates": [
          -134.14962003891335,
          -2.8647813969927696
        ]
      }
    },
    {
      "type": "Feature",
      "properties": {
        "norad_id": 33848,
        "name": "COSMOS 2251 DEB",
        "group": "cosmos-2251-debris",
        "lat": 18.93689506086741,
        "lon": 164.1091180951069,
        "alt_km": 757.612348223166,
        "timestamp": "2025-12-16T23:36:36.590864+00:00",
        "meta_object_name": "COSMOS 2251 DEB",
        "meta_object_id": "1993-036CR",
        "meta_epoch": "2025-12-16T08:27:44.858592",
        "meta_mean_motion": 14.44086469,
        "meta_eccentricity": 0.00412956,
        "meta_inclination": 74.0318,
        "meta_ra_of_asc_node": 350.9207,
        "meta_arg_of_pericenter": 45.6489,
        "meta_mean_anomaly": 74.2269,
        "meta_ephemeris_type": 0,
        "meta_classification_type": "U",
        "meta_norad_cat_id": 33848,
        "meta_element_set_no": 999,
        "meta_rev_at_epoch": 87883,
        "meta_bstar": 0.00078574286,
        "meta_mean_motion_dot": 2.693e-05,
        "meta_mean_motion_ddot": 0,
        "tle_line1": "1 33848U 93036CR  25350.35260253  .00002693  00000+0  78574-3 0  9991",
        "tle_line2": "2 33848  74.0318 350.9207 0041295  45.6489  74.2269 14.44086469878834"
      },
      "geometry": {
        "type": "Point",
        "coordinates": [
          164.1091180951069,
          18.93689506086741
        ]
      }
    },
    {
      "type": "Feature",
      "properties": {
        "norad_id": 33892,
        "name": "COSMOS 2251 DEB",
        "group": "cosmos-2251-debris",
        "lat": 49.255562098196165,
        "lon": -105.40183125933565,
        "alt_km": 728.2885441032167,
        "timestamp": "2025-12-16T23:36:36.590874+00:00",
        "meta_object_name": "COSMOS 2251 DEB",
        "meta_object_id": "1993-036CV",
        "meta_epoch": "2025-12-16T08:06:09.801216",
        "meta_mean_motion": 14.23352605,
        "meta_eccentricity": 0.01126312,
        "meta_inclination": 73.8031,
        "meta_ra_of_asc_node": 95.4942,
        "meta_arg_of_pericenter": 126.0323,
        "meta_mean_anomaly": 292.1503,
        "meta_ephemeris_type": 0,
        "meta_classification_type": "U",
        "meta_norad_cat_id": 33892,
        "meta_element_set_no": 999,
        "meta_rev_at_epoch": 87006,
        "meta_bstar": 0.00061608147,
        "meta_mean_motion_dot": 1.465e-05,
        "meta_mean_motion_ddot": 0,
        "tle_line1": "1 33892U 93036CV  25350.33761344  .00001465  00000+0  61608-3 0  9991",
        "tle_line2": "2 33892  73.8031  95.4942 0112631 126.0323 292.1503 14.23352605870067"
      },
      "geometry": {
        "type": "Point",
        "coordinates": [
          -105.40183125933565,
          49.255562098196165
        ]
      }
    },
    {
      "type": "Feature",
      "properties": {
        "norad_id": 33894,
        "name": "COSMOS 2251 DEB",
        "group": "cosmos-2251-debris",
        "lat": -68.84840431318756,
        "lon": -66.33494548042098,
        "alt_km": 778.2220171189465,
        "timestamp": "2025-12-16T23:36:36.590885+00:00",
        "meta_object_name": "COSMOS 2251 DEB",
        "meta_object_id": "1993-036CX",
        "meta_epoch": "2025-12-16T02:10:12.486720",
        "meta_mean_motion": 13.21313502,
        "meta_eccentricity": 0.0579398,
        "meta_inclination": 73.7668,
        "meta_ra_of_asc_node": 343.8946,
        "meta_arg_of_pericenter": 262.8714,
        "meta_mean_anomaly": 90.6188,
        "meta_ephemeris_type": 0,
        "meta_classification_type": "U",
        "meta_norad_cat_id": 33894,
        "meta_element_set_no": 999,
        "meta_rev_at_epoch": 80752,
        "meta_bstar": 0.00072722864,
        "meta_mean_motion_dot": 7e-06,
        "meta_mean_motion_ddot": 0,
        "tle_line1": "1 33894U 93036CX  25350.09042230  .00000700  00000+0  72723-3 0  9993",
        "tle_line2": "2 33894  73.7668 343.8946 0579398 262.8714  90.6188 13.21313502807529"
      },
      "geometry": {
        "type": "Point",
        "coordinates": [
          -66.33494548042098,
          -68.84840431318756
        ]
      }
    },
    {
      "type": "Feature",
      "properties": {
        "norad_id": 33896,
        "name": "COSMOS 2251 DEB",
        "group": "cosmos-2251-debris",
        "lat": 45.886007859212214,
        "lon": -48.509688892667135,
        "alt_km": 913.2731229759765,
        "timestamp": "2025-12-16T23:36:36.590895+00:00",
        "meta_object_name": "COSMOS 2251 DEB",
        "meta_object_id": "1993-036CZ",
        "meta_epoch": "2025-12-15T22:23:13.176096",
        "meta_mean_motion": 14.19046999,
        "meta_eccentricity": 0.01266396,
        "meta_inclination": 73.766,
        "meta_ra_of_asc_node": 150.8859,
        "meta_arg_of_pericenter": 326.0726,
        "meta_mean_anomaly": 198.2889,
        "meta_ephemeris_type": 0,
        "meta_classification_type": "U",
        "meta_norad_cat_id": 33896,
        "meta_element_set_no": 999,
        "meta_rev_at_epoch": 86785,
        "meta_bstar": 0.00055604269,
        "meta_mean_motion_dot": 1.23e-05,
        "meta_mean_motion_ddot": 0,
        "tle_line1": "1 33896U 93036CZ  25349.93279139  .00001230  00000+0  55604-3 0  9994",
        "tle_line2": "2 33896  73.7660 150.8859 0126639 326.0726 198.2889 14.19046999867850"
      },
      "geometry": {
        "type": "Point",
        "coordinates": [
          -48.509688892667135,
          45.886007859212214
        ]
      }
    },
    {
      "type": "Feature",
      "properties": {
        "norad_id": 33899,
        "name": "COSMOS 2251 DEB",
        "group": "cosmos-2251-debris",
        "lat": 67.34124735949291,
        "lon": 120.8463253492824,
        "alt_km": 665.4645258319815,
        "timestamp": "2025-12-16T23:36:36.590905+00:00",
        "meta_object_name": "COSMOS 2251 DEB",
        "meta_object_id": "1993-036DC",
        "meta_epoch": "2025-12-16T07:08:05.025696",
        "meta_mean_motion": 14.61223986,
        "meta_eccentricity": 0.00565587,
        "meta_inclination": 74.0541,
        "meta_ra_of_asc_node": 78.9306,
        "meta_arg_of_pericenter": 140.6015,
        "meta_mean_anomaly": 284.052,
        "meta_ephemeris_type": 0,
        "meta_classification_type": "U",
        "meta_norad_cat_id": 33899,
        "meta_element_set_no": 999,
        "meta_rev_at_epoch": 88891,
        "meta_bstar": 0.00061184539,
        "meta_mean_motion_dot": 3.056e-05,
        "meta_mean_motion_ddot": 0,
        "tle_line1": "1 33899U 93036DC  25350.29728039  .00003056  00000+0  61185-3 0  9995",
        "tle_line2": "2 33899  74.0541  78.9306 0056558 140.6015 284.0520 14.61223986888911"
      },
      "geometry": {
        "type": "Point",
        "coordinates": [
          120.8463253492824,
          67.34124735949291
        ]
      }
    },
    {
      "type": "Feature",
      "properties": {
        "norad_id": 33900,
        "name": "COSMOS 2251 DEB",
        "group": "cosmos-2251-debris",
        "lat": 61.07145259381033,
        "lon": 23.010341371337304,
        "alt_km": 684.668190203537,
        "timestamp": "2025-12-16T23:36:36.590916+00:00",
        "meta_object_name": "COSMOS 2251 DEB",
        "meta_object_id": "1993-036DD",
        "meta_epoch": "2025-12-16T06:56:38.715936",
        "meta_mean_motion": 14.58360319,
        "meta_eccentricity": 0.00466535,
        "meta_inclination": 74.0191,
        "meta_ra_of_asc_node": 353.1,
        "meta_arg_of_pericenter": 144.222,
        "meta_mean_anomaly": 237.6314,
        "meta_ephemeris_type": 0,
        "meta_classification_type": "U",
        "meta_norad_cat_id": 33900,
        "meta_element_set_no": 999,
        "meta_rev_at_epoch": 89088,
        "meta_bstar": 0.00030019256,
        "meta_mean_motion_dot": 1.381e-05,
        "meta_mean_motion_ddot": 0,
        "tle_line1": "1 33900U 93036DD  25350.28933699  .00001381  00000+0  30019-3 0  9998",
        "tle_line2": "2 33900  74.0191 353.1000 0046653 144.2220 237.6314 14.58360319890889"
      },
      "geometry": {
        "type": "Point",
        "coordinates": [
          23.010341371337304,
          61.07145259381033
        ]
      }
    }
  ]
}